start=new Date('2022-03-31T00:00:00.000Z').valueOf();
sats=[{"CENTER_NAME":"EARTH","MEAN_MOTION":"15.06399126","TIME_SYSTEM":"UTC","ECCENTRICITY":"0.00014060","ARG_OF_PERICENTER":"71.5055","CLASSIFICATION_TYPE":"U","MEAN_ANOMALY":"288.6086","COUNTRY_CODE":"US","OBJECT_TYPE":"PAYLOAD","RA_OF_ASC_NODE":"160.1969","APOAPSIS":"548.190","MEAN_ELEMENT_THEORY":"SGP4","TLE_LINE2":"2 46545  53.0556 160.1969 0001406  71.5055 288.6086 15.06399126 82488","OBJECT_NAME":"STARLINK-1696","EPHEMERIS_TYPE":"0","RCS_SIZE":"LARGE","NORAD_CAT_ID":"46545","INCLINATION":"53.0556","REF_FRAME":"TEME","MEAN_MOTION_DDOT":"0.0000000000000","EPOCH":"2022-03-30T21:04:58.501632","GP_ID":"200096527","BSTAR":"0.00006620800000","PERIAPSIS":"546.243","FILE":"3380787","DECAY_DATE":null,"MEAN_MOTION_DOT":"0.00000705","OBJECT_ID":"2020-070P","SEMIMAJOR_AXIS":"6925.351","PERIOD":"95.592","LAUNCH_DATE":"2020-10-06","TLE_LINE1":"1 46545U 20070P   22089.87845488  .00000705  00000-0  66208-4 0  9994","ELEMENT_SET_NO":"999","REV_AT_EPOCH":"8248","SITE":"AFETR"},{"COUNTRY_CODE":"US","MEAN_ANOMALY":"302.3998","ARG_OF_PERICENTER":"57.7148","CLASSIFICATION_TYPE":"U","ECCENTRICITY":"0.00016240","TIME_SYSTEM":"UTC","MEAN_MOTION":"15.06397851","CENTER_NAME":"EARTH","RCS_SIZE":"LARGE","EPHEMERIS_TYPE":"0","OBJECT_NAME":"STARLINK-1697","TLE_LINE2":"2 46546  53.0543 161.7303 0001624  57.7148 302.3998 15.06397851 82439","MEAN_ELEMENT_THEORY":"SGP4","APOAPSIS":"548.345","RA_OF_ASC_NODE":"161.7303","OBJECT_TYPE":"PAYLOAD","GP_ID":"200096777","EPOCH":"2022-03-30T12:46:03.530784","MEAN_MOTION_DDOT":"0.0000000000000","REF_FRAME":"TEME","INCLINATION":"53.0543","NORAD_CAT_ID":"46546","SITE":"AFETR","REV_AT_EPOCH":"8243","ELEMENT_SET_NO":"999","TLE_LINE1":"1 46546U 20070Q   22089.53198531  .00001028  00000-0  87876-4 0  9991","LAUNCH_DATE":"2020-10-06","PERIOD":"95.592","OBJECT_ID":"2020-070Q","SEMIMAJOR_AXIS":"6925.355","MEAN_MOTION_DOT":"0.00001028","DECAY_DATE":null,"FILE":"3380787","PERIAPSIS":"546.095","BSTAR":"0.00008787600000"},{"MEAN_ANOMALY":"296.4554","COUNTRY_CODE":"US","CENTER_NAME":"EARTH","ECCENTRICITY":"0.00015410","TIME_SYSTEM":"UTC","CLASSIFICATION_TYPE":"U","ARG_OF_PERICENTER":"63.6593","MEAN_MOTION":"15.06395088","TLE_LINE2":"2 46547  53.0542 161.0087 0001541  63.6593 296.4554 15.06395088 82463","OBJECT_NAME":"STARLINK-1698","MEAN_ELEMENT_THEORY":"SGP4","RCS_SIZE":"LARGE","EPHEMERIS_TYPE":"0","OBJECT_TYPE":"PAYLOAD","RA_OF_ASC_NODE":"161.0087","APOAPSIS":"548.296","GP_ID":"200097529","NORAD_CAT_ID":"46547","MEAN_MOTION_DDOT":"0.0000000000000","EPOCH":"2022-03-30T16:39:34.780320","INCLINATION":"53.0542","REF_FRAME":"TEME","LAUNCH_DATE":"2020-10-06","PERIOD":"95.592","ELEMENT_SET_NO":"999","SITE":"AFETR","REV_AT_EPOCH":"8246","TLE_LINE1":"1 46547U 20070R   22089.69415255 -.00000854  00000-0 -38444-4 0  9999","FILE":"3380787","PERIAPSIS":"546.161","DECAY_DATE":null,"BSTAR":"-0.00003844400000","OBJECT_ID":"2020-070R","SEMIMAJOR_AXIS":"6925.364","MEAN_MOTION_DOT":"-0.00000854"},{"BSTAR":"-0.00007155300000","PERIAPSIS":"546.154","FILE":"3380779","DECAY_DATE":null,"MEAN_MOTION_DOT":"-0.00001347","OBJECT_ID":"2020-070S","SEMIMAJOR_AXIS":"6925.391","PERIOD":"95.593","LAUNCH_DATE":"2020-10-06","TLE_LINE1":"1 46548U 20070S   22089.50618720 -.00001347  00000-0 -71553-4 0  9998","ELEMENT_SET_NO":"999","SITE":"AFETR","REV_AT_EPOCH":"8243","NORAD_CAT_ID":"46548","INCLINATION":"53.0536","REF_FRAME":"TEME","MEAN_MOTION_DDOT":"0.0000000000000","EPOCH":"2022-03-30T12:08:54.574080","GP_ID":"200071168","OBJECT_TYPE":"PAYLOAD","APOAPSIS":"548.358","RA_OF_ASC_NODE":"161.8569","MEAN_ELEMENT_THEORY":"SGP4","TLE_LINE2":"2 46548  53.0536 161.8569 0001591  68.0175 292.0983 15.06386064 82439","OBJECT_NAME":"STARLINK-1699","EPHEMERIS_TYPE":"0","RCS_SIZE":"LARGE","CENTER_NAME":"EARTH","MEAN_MOTION":"15.06386064","TIME_SYSTEM":"UTC","ECCENTRICITY":"0.00015910","ARG_OF_PERICENTER":"68.0175","CLASSIFICATION_TYPE":"U","MEAN_ANOMALY":"292.0983","COUNTRY_CODE":"US"},{"OBJECT_ID":"2020-070T","SEMIMAJOR_AXIS":"6925.322","MEAN_MOTION_DOT":"0.00014573","DECAY_DATE":null,"PERIAPSIS":"546.019","FILE":"3380787","BSTAR":"0.00099500000000","REV_AT_EPOCH":"8245","SITE":"AFETR","ELEMENT_SET_NO":"999","TLE_LINE1":"1 46549U 20070T   22089.66836164  .00014573  00000-0  99500-3 0  9994","LAUNCH_DATE":"2020-10-06","PERIOD":"95.592","MEAN_MOTION_DDOT":"0.0000000000000","EPOCH":"2022-03-30T16:02:26.445696","REF_FRAME":"TEME","INCLINATION":"53.0518","NORAD_CAT_ID":"46549","GP_ID":"200096027","APOAPSIS":"548.354","RA_OF_ASC_NODE":"161.1147","OBJECT_TYPE":"PAYLOAD","RCS_SIZE":"LARGE","EPHEMERIS_TYPE":"0","OBJECT_NAME":"STARLINK-1700","TLE_LINE2":"2 46549  53.0518 161.1147 0001686  69.6828 290.4342 15.06408801 82459","MEAN_ELEMENT_THEORY":"SGP4","ARG_OF_PERICENTER":"69.6828","CLASSIFICATION_TYPE":"U","TIME_SYSTEM":"UTC","ECCENTRICITY":"0.00016860","MEAN_MOTION":"15.06408801","CENTER_NAME":"EARTH","COUNTRY_CODE":"US","MEAN_ANOMALY":"290.4342"},{"APOAPSIS":"548.369","RA_OF_ASC_NODE":"161.7896","OBJECT_TYPE":"PAYLOAD","EPHEMERIS_TYPE":"0","RCS_SIZE":"LARGE","MEAN_ELEMENT_THEORY":"SGP4","OBJECT_NAME":"STARLINK-1701","TLE_LINE2":"2 46550  53.0538 161.7896 0001641  59.5774 300.5377 15.06393941 82436","MEAN_MOTION":"15.06393941","CLASSIFICATION_TYPE":"U","ARG_OF_PERICENTER":"59.5774","TIME_SYSTEM":"UTC","ECCENTRICITY":"0.00016410","CENTER_NAME":"EARTH","COUNTRY_CODE":"US","MEAN_ANOMALY":"300.5377","MEAN_MOTION_DOT":"-0.00001614","OBJECT_ID":"2020-070U","SEMIMAJOR_AXIS":"6925.367","BSTAR":"-0.00008950200000","DECAY_DATE":null,"FILE":"3380779","PERIAPSIS":"546.096","TLE_LINE1":"1 46550U 20070U   22089.52092068 -.00001614  00000-0 -89502-4 0  9994","REV_AT_EPOCH":"8243","SITE":"AFETR","ELEMENT_SET_NO":"999","PERIOD":"95.593","LAUNCH_DATE":"2020-10-06","REF_FRAME":"TEME","INCLINATION":"53.0538","MEAN_MOTION_DDOT":"0.0000000000000","EPOCH":"2022-03-30T12:30:07.546752","NORAD_CAT_ID":"46550","GP_ID":"200072169"},{"RCS_SIZE":"LARGE","EPHEMERIS_TYPE":"0","TLE_LINE2":"2 46552  53.0527 146.9616 0001653  58.9382 301.1769 15.06396060 82642","OBJECT_NAME":"STARLINK-1649","MEAN_ELEMENT_THEORY":"SGP4","OBJECT_TYPE":"PAYLOAD","APOAPSIS":"548.370","RA_OF_ASC_NODE":"146.9616","MEAN_ANOMALY":"301.1769","COUNTRY_CODE":"US","ECCENTRICITY":"0.00016530","TIME_SYSTEM":"UTC","CLASSIFICATION_TYPE":"U","ARG_OF_PERICENTER":"58.9382","MEAN_MOTION":"15.06396060","CENTER_NAME":"EARTH","ELEMENT_SET_NO":"999","SITE":"AFETR","REV_AT_EPOCH":"8264","TLE_LINE1":"1 46552U 20070W   22089.47991644 -.00001230  00000-0 -63671-4 0  9991","LAUNCH_DATE":"2020-10-06","PERIOD":"95.592","OBJECT_ID":"2020-070W","SEMIMAJOR_AXIS":"6925.361","MEAN_MOTION_DOT":"-0.00001230","PERIAPSIS":"546.081","FILE":"3380779","DECAY_DATE":null,"BSTAR":"-0.00006367100000","GP_ID":"200070644","MEAN_MOTION_DDOT":"0.0000000000000","EPOCH":"2022-03-30T11:31:04.780416","INCLINATION":"53.0527","REF_FRAME":"TEME","NORAD_CAT_ID":"46552"},{"COUNTRY_CODE":"US","MEAN_ANOMALY":"296.2454","CENTER_NAME":"EARTH","CLASSIFICATION_TYPE":"U","ARG_OF_PERICENTER":"63.8678","ECCENTRICITY":"0.00013900","TIME_SYSTEM":"UTC","MEAN_MOTION":"15.06404272","OBJECT_NAME":"STARLINK-1664","TLE_LINE2":"2 46553  53.0537 130.3565 0001390  63.8678 296.2454 15.06404272 82904","MEAN_ELEMENT_THEORY":"SGP4","RCS_SIZE":"LARGE","EPHEMERIS_TYPE":"0","RA_OF_ASC_NODE":"130.3565","APOAPSIS":"548.163","OBJECT_TYPE":"PAYLOAD","GP_ID":"200097780","NORAD_CAT_ID":"46553","MEAN_MOTION_DDOT":"0.0000000000000","EPOCH":"2022-03-30T20:09:12.037824","REF_FRAME":"TEME","INCLINATION":"53.0537","LAUNCH_DATE":"2020-10-06","PERIOD":"95.592","SITE":"AFETR","REV_AT_EPOCH":"8290","ELEMENT_SET_NO":"999","TLE_LINE1":"1 46553U 20070X   22089.83972266  .00001597  00000-0  12610-3 0  9991","DECAY_DATE":null,"FILE":"3380787","PERIAPSIS":"546.238","BSTAR":"0.00012610000000","OBJECT_ID":"2020-070X","SEMIMAJOR_AXIS":"6925.335","MEAN_MOTION_DOT":"0.00001597"},{"RCS_SIZE":"LARGE","EPHEMERIS_TYPE":"0","TLE_LINE2":"2 46554  53.0524 146.8993 0001547  69.4029 290.7125 15.06407113 82646","OBJECT_NAME":"STARLINK-1671","MEAN_ELEMENT_THEORY":"SGP4","OBJECT_TYPE":"PAYLOAD","RA_OF_ASC_NODE":"146.8993","APOAPSIS":"548.263","MEAN_ANOMALY":"290.7125","COUNTRY_CODE":"US","ECCENTRICITY":"0.00015470","TIME_SYSTEM":"UTC","CLASSIFICATION_TYPE":"U","ARG_OF_PERICENTER":"69.4029","MEAN_MOTION":"15.06407113","CENTER_NAME":"EARTH","ELEMENT_SET_NO":"999","SITE":"AFETR","REV_AT_EPOCH":"8264","TLE_LINE1":"1 46554U 20070Y   22089.49465514  .00000693  00000-0  65439-4 0  9991","LAUNCH_DATE":"2020-10-06","PERIOD":"95.592","OBJECT_ID":"2020-070Y","SEMIMAJOR_AXIS":"6925.327","MEAN_MOTION_DOT":"0.00000693","FILE":"3380779","PERIAPSIS":"546.120","DECAY_DATE":null,"BSTAR":"0.00006543900000","GP_ID":"200071418","MEAN_MOTION_DDOT":"0.0000000000000","EPOCH":"2022-03-30T11:52:18.204096","INCLINATION":"53.0524","REF_FRAME":"TEME","NORAD_CAT_ID":"46554"},{"EPHEMERIS_TYPE":"0","RCS_SIZE":"LARGE","MEAN_ELEMENT_THEORY":"SGP4","OBJECT_NAME":"STARLINK-1676","TLE_LINE2":"2 46556  53.0529 161.6445 0001510  61.8691 298.2451 15.06397324 82446","APOAPSIS":"548.267","RA_OF_ASC_NODE":"161.6445","OBJECT_TYPE":"PAYLOAD","COUNTRY_CODE":"US","MEAN_ANOMALY":"298.2451","MEAN_MOTION":"15.06397324","CLASSIFICATION_TYPE":"U","ARG_OF_PERICENTER":"61.8691","TIME_SYSTEM":"UTC","ECCENTRICITY":"0.00015100","CENTER_NAME":"EARTH","TLE_LINE1":"1 46556U 20070AA  22089.55409427 -.00000891  00000-0 -40949-4 0  9992","SITE":"AFETR","REV_AT_EPOCH":"8244","ELEMENT_SET_NO":"999","PERIOD":"95.592","LAUNCH_DATE":"2020-10-06","MEAN_MOTION_DOT":"-0.00000891","OBJECT_ID":"2020-070AA","SEMIMAJOR_AXIS":"6925.357","BSTAR":"-0.00004094900000","DECAY_DATE":null,"FILE":"3380787","PERIAPSIS":"546.176","GP_ID":"200096778","REF_FRAME":"TEME","INCLINATION":"53.0529","MEAN_MOTION_DDOT":"0.0000000000000","EPOCH":"2022-03-30T13:17:53.744928","NORAD_CAT_ID":"46556"}];
